SPACEMOBILE-006         
1 67232U 25309A   26056.46433928  .00003081  00000+0  16522-3 0  9997
2 67232  52.9961 123.1288 0011635 143.4357 216.7432 15.17937770  9621
